IRIDIUM 144             
1 43249U 18030A   23302.61110550  .00000425  00000+0  14473-3 0  9995
2 43249  86.3963 332.3049 0002287  97.2208 262.9248 14.34218289292312
IRIDIUM 149             
1 43250U 18030B   23302.61743518  .00000460  00000+0  15729-3 0  9997
2 43250  86.3961 332.2798 0002320 100.3885 259.7572 14.34215695292331
IRIDIUM 157             
1 43251U 18030C   23302.56670722  .00000411  00000+0  13952-3 0  9990
2 43251  86.3965 332.3330 0002209  87.6649 272.4800 14.34218277292302
IRIDIUM 140             
1 43252U 18030D   23302.79503968  .00000436  00000+0  14871-3 0  9991
2 43252  86.3965 332.2522 0002050 100.6683 259.4744 14.34219322292396
IRIDIUM 145             
1 43253U 18030E   23302.64282063  .00000458  00000+0  15657-3 0  9993
2 43253  86.3964 332.2902 0002460 100.5678 259.5795 14.34218553292309
IRIDIUM 146             
1 43254U 18030F   23302.62378750  .00000389  00000+0  13166-3 0  9997
2 43254  86.3965 332.3136 0002496  98.0122 262.1357 14.34218141292313
IRIDIUM 148             
1 43255U 18030G   23302.59207678  .00000467  00000+0  15960-3 0  9995
2 43255  86.3966 332.3557 0002541  94.1416 266.0070 14.34219493292356
IRIDIUM 142             
1 43256U 18030H   23302.56036259  .00000454  00000+0  15506-3 0  9990
2 43256  86.3962 332.2929 0002373  94.3235 265.8232 14.34219718292301
